[{"OBJECT_NAME":"STARCLOUD-1","OBJECT_ID":"2025-248L","EPOCH":"2026-03-08T23:33:20.923488","MEAN_MOTION":15.20134222,"ECCENTRICITY":0.00060214,"INCLINATION":45.402,"RA_OF_ASC_NODE":297.8511,"ARG_OF_PERICENTER":202.4241,"MEAN_ANOMALY":157.6383,"EPHEMERIS_TYPE":0,"CLASSIFICATION_TYPE":"U","NORAD_CAT_ID":66303,"ELEMENT_SET_NO":999,"REV_AT_EPOCH":1928,"BSTAR":0.00040463937,"MEAN_MOTION_DOT":8.636e-5,"MEAN_MOTION_DDOT":0},{"OBJECT_NAME":"COSMOS 2251 DEB","OBJECT_ID":"1993-036AMV","EPOCH":"2026-03-09T05:38:06.550656","MEAN_MOTION":15.39543317,"ECCENTRICITY":0.00779257,"INCLINATION":73.9961,"RA_OF_ASC_NODE":355.5603,"ARG_OF_PERICENTER":37.2584,"MEAN_ANOMALY":111.9555,"EPHEMERIS_TYPE":0,"CLASSIFICATION_TYPE":"U","NORAD_CAT_ID":35602,"ELEMENT_SET_NO":999,"REV_AT_EPOCH":91420,"BSTAR":0.00072859847,"MEAN_MOTION_DOT":0.00031956,"MEAN_MOTION_DDOT":0}]
